OBJECT_NAME,OBJECT_ID,EPOCH,MEAN_MOTION,ECCENTRICITY,INCLINATION,RA_OF_ASC_NODE,ARG_OF_PERICENTER,MEAN_ANOMALY,EPHEMERIS_TYPE,CLASSIFICATION_TYPE,NORAD_CAT_ID,ELEMENT_SET_NO,REV_AT_EPOCH,BSTAR,MEAN_MOTION_DOT,MEAN_MOTION_DDOT
STARLINK-33654,2025-070G,2026-06-27T12:30:41.083776,15.27584687,.0001141,42.9993,359.5412,265.6145,94.4576,0,U,63466,999,6977,.56804E-3,.15404E-3,0
STARLINK-33697,2025-070H,2026-06-27T12:34:23.320128,15.27599150,.000008,42.9967,359.5751,324.0850,35.9996,0,U,63467,999,6977,.68052E-3,.18523E-3,0
STARLINK-33720,2025-070J,2026-06-27T04:45:27.349344,15.27570045,.00014544,42.9998,1.4166,258.7404,101.3284,0,U,63468,999,6972,.9111767E-3,.24889E-3,0
STARLINK-33587,2025-070K,2026-06-27T12:14:01.815072,15.27584232,.0001502,42.9998,359.4478,246.5909,113.4784,0,U,63469,999,6977,.61011E-3,.16567E-3,0
STARLINK-33637,2025-070L,2026-06-27T11:42:47.481984,15.27588459,.000118,43.0032,0.1514,268.9090,91.1627,0,U,63470,999,6976,.68623E-3,.18674E-3,0
STARLINK-33744,2025-070M,2026-06-27T05:03:57.345696,15.27579823,.00014747,43.0001,1.5095,269.0020,91.0662,0,U,63471,999,6972,.6087122E-3,.16526E-3,0
STARLINK-33766,2025-070N,2026-06-27T13:07:39.472032,15.27618458,.0001857,43.0046,359.7334,274.8216,85.2423,0,U,63472,999,6977,-.12868E-3,-.3806E-4,0
STARLINK-33765,2025-070P,2026-06-27T04:51:00.240768,15.27581271,.0001169,42.9996,1.4440,272.2048,87.8669,0,U,63473,999,6972,.61133903E-3,.16599E-3,0
STARLINK-33735,2025-070Q,2026-06-27T12:15:52.076160,15.27563599,.0001535,42.9998,359.4523,234.9514,125.1194,0,U,63474,999,6977,.40214E-4,.844E-5,0
STARLINK-33731,2025-070R,2026-06-27T11:39:05.313024,15.27584598,.0001528,43.0034,0.1319,273.1771,86.8906,0,U,63475,999,6976,.71649E-3,.19509E-3,0
STARLINK-33718,2025-070S,2026-06-27T11:57:22.862592,15.27583343,.0001774,43.0025,359.3602,278.1362,81.9289,0,U,63476,999,6977,.67169E-3,.18269E-3,0
STARLINK-33630,2025-070T,2026-06-27T12:18:25.513920,15.27581931,.0000703,42.9991,355.9951,201.8976,158.1845,0,U,63477,999,6981,.5728E-3,.15534E-3,0
STARLINK-33695,2025-070U,2026-06-27T11:59:54.472128,15.27627525,.0001528,43.0008,355.8911,257.5220,102.5461,0,U,63478,999,6981,.70856E-3,.19315E-3,0
STARLINK-33713,2025-070V,2026-06-27T12:05:28.417632,15.27575798,.0001645,42.9999,355.9195,253.5996,106.4675,0,U,63479,999,6981,.95822E-3,.26196E-3,0
STARLINK-33721,2025-070W,2026-06-27T12:09:10.329984,15.27596233,.0001079,42.9992,355.9425,269.5748,90.4980,0,U,63480,999,6981,.77493E-3,.21134E-3,0
STARLINK-33639,2025-070X,2026-06-27T12:36:55.618272,15.27588865,.0001422,43.0010,356.0837,281.9529,78.1164,0,U,63481,999,6981,.76964E-3,.20983E-3,0
STARLINK-33688,2025-070Z,2026-06-27T12:47:20.221152,15.27584098,.0001475,43.0012,359.6085,276.6140,83.4544,0,U,63483,999,6977,.64716E-3,.17591E-3,0
STARLINK-33700,2025-070AA,2026-06-27T12:19:34.933728,15.27585585,.0001616,42.9984,359.4587,262.7734,97.2934,0,U,63484,999,6977,.82789E-3,.22593E-3,0
STARLINK-33687,2025-070AB,2026-06-27T12:02:55.197600,15.27583719,.0001617,43.0022,359.3303,265.9922,94.0745,0,U,63485,999,6977,.75603E-3,.20603E-3,0
STARLINK-33716,2025-070AC,2026-06-27T12:10:20.100576,15.27581733,.0001696,43.0016,359.4233,275.6957,84.3701,0,U,63486,999,6977,.65443E-3,.17791E-3,0
STARLINK-33754,2025-070AD,2026-06-27T04:49:08.908320,15.27581610,.00015299,43.0002,1.4166,270.5152,89.5524,0,U,63487,999,6972,.5854347E-3,.15883E-3,0
POSAT-2,2025-009DR,2026-06-27T12:08:58.704864,15.13203077,.0007352,97.4850,253.3683,113.0553,247.1454,0,U,63488,999,6820,.79908E-3,.14147E-3,0
HERMES-6,2025-052BK,2026-06-25T16:22:40.929888,15.23235603,.00077003,97.4006,69.0480,129.8633,230.3283,0,U,63489,999,7112,.31097272E-3,.73E-4,0
STARLINK-33828,2025-071A,2026-06-27T11:48:13.305024,15.35409182,.0000904,53.1599,347.6049,86.1971,273.9136,0,U,63493,999,6959,.69007E-3,.23773E-3,0
STARLINK-33819,2025-071B,2026-06-26T22:00:01.998720,15.34321336,.0001122,53.1597,350.0952,94.0263,63.6412,0,U,63494,999,590,.21441E-2,.72585E-3,0
STARLINK-33845,2025-071C,2026-06-27T11:51:19.262880,15.30216155,.0000749,53.1591,349.7371,100.3988,259.7098,0,U,63495,999,6956,.98735E-3,.29012E-3,0
STARLINK-33829,2025-071D,2026-06-26T21:44:27.821184,15.31710180,.0001025,53.1604,352.4684,94.0661,266.0457,0,U,63496,999,6943,.10084E-2,.31068E-3,0
STARLINK-33815,2025-071E,2026-06-26T21:37:44.738400,15.31696461,.0001083,53.1596,352.4437,66.8615,293.2500,0,U,63497,999,6949,.75282E-3,.23065E-3,0
STARLINK-33833,2025-071F,2026-06-27T11:56:50.123040,15.31710011,.0000581,53.1590,349.7607,57.3738,302.7319,0,U,63498,999,6958,.69691E-3,.2133E-3,0
STARLINK-33534,2025-071G,2026-06-27T04:40:30.364032,15.31699415,.00011059,53.1599,350.7178,76.4265,283.6860,0,U,63499,999,6952,.66240894E-3,.20246E-3,0
STARLINK-33838,2025-071H,2026-06-27T11:57:23.349888,15.30206350,.0000713,53.1592,349.7607,15.3748,344.7274,0,U,63500,999,6937,.79231E-3,.23185E-3,0
STARLINK-33837,2025-071J,2026-06-27T12:03:33.269760,15.31711515,.0001443,53.1592,349.7941,112.0179,248.0976,0,U,63501,999,6952,.82668E-3,.25384E-3,0
STARLINK-33818,2025-071K,2026-06-27T11:52:50.986848,15.30194796,.0001287,53.1582,349.7415,103.6367,256.4777,0,U,63502,999,6958,.12251E-2,.36096E-3,0
STARLINK-33583,2025-071L,2026-06-26T21:14:48.955776,15.49328138,.0001018,53.1593,348.7675,72.2533,287.8587,0,U,63503,999,6955,.13834E-2,.77305E-3,0
STARLINK-33811,2025-071M,2026-06-27T05:06:24.277536,15.30194690,.00008294,53.1615,351.5322,104.4639,255.6453,0,U,63504,999,6947,.66678037E-3,.19437E-3,0
STARLINK-33825,2025-071N,2026-06-26T21:32:41.267040,15.30202786,.000094,53.1598,352.4115,88.5057,271.6051,0,U,63505,999,6949,.11354E-2,.33421E-3,0
STARLINK-33792,2025-071P,2026-06-27T11:45:15.042816,15.30195351,.0001106,53.1596,349.7077,83.3236,276.7891,0,U,63506,999,6953,.10992E-2,.32334E-3,0
STARLINK-33843,2025-071Q,2026-06-27T12:00:02.000160,15.31703799,.0001096,53.1590,349.8157,90.6973,230.1821,0,U,63507,999,590,.68691E-3,.21013E-3,0
STARLINK-33809,2025-071R,2026-06-27T11:55:52.774176,15.30206039,.0000979,53.1594,349.7205,92.5907,267.5206,0,U,63508,999,6952,.95126E-3,.27926E-3,0
STARLINK-33678,2025-071S,2026-06-27T04:33:46.537344,15.31703948,.00008889,53.1590,350.6497,71.5731,288.5367,0,U,63509,999,6927,.78776474E-3,.24162E-3,0
STARLINK-33764,2025-071T,2026-06-27T05:10:58.145664,15.30218669,.0001113,53.1613,351.5143,104.1080,256.0045,0,U,63510,999,6951,.67245E-3,.19621E-3,0
STARLINK-33804,2025-071U,2026-06-26T21:31:01.157952,15.31691582,.0001205,53.1601,352.3740,63.8695,296.2431,0,U,63511,999,6912,.11839E-2,.36544E-3,0
STARLINK-33751,2025-071V,2026-06-27T05:07:23.484864,15.31697275,.00010979,53.1607,350.7962,49.0239,311.0858,0,U,63512,999,6952,.11384206E-2,.35125E-3,0
STARLINK-33750,2025-071W,2026-06-27T12:43:44.349888,15.31712982,.0001504,53.1606,349.2174,93.6142,266.5032,0,U,63513,999,6957,.68644E-3,.21005E-3,0
STARLINK-33786,2025-071X,2026-06-27T05:00:19.355040,15.30192172,.00012294,53.1614,351.4661,76.8637,283.2501,0,U,63514,999,6915,.64243687E-3,.18711E-3,0
STARLINK-33796,2025-071Y,2026-06-27T11:48:18.307584,15.30200953,.0001078,53.1596,349.6792,70.2154,289.8963,0,U,63515,999,6958,.18121E-2,.53701E-3,0
STARLINK-33785,2025-071Z,2026-06-27T11:29:56.502816,15.31707408,.0001177,53.1609,349.6045,70.3887,289.7241,0,U,63516,999,6956,.49172E-3,.14928E-3,0
STARLINK-33803,2025-071AA,2026-06-27T11:58:54.909696,15.30213975,.0002053,53.1595,349.7237,94.3816,265.7419,0,U,63517,999,6958,.85187E-3,.24967E-3,0
STARLINK-33807,2025-071AB,2026-06-27T04:58:54.511104,15.34396317,.00010155,53.1608,348.6200,95.3368,264.7750,0,U,63518,999,6957,.77229326E-3,.25804E-3,0
STARLINK-33787,2025-071AC,2026-06-27T12:30:04.368096,15.30201047,.0001141,53.1588,351.9961,98.5182,261.5948,0,U,63519,999,6918,.64263E-3,.18722E-3,0
TJS-17,2025-073A,2026-06-27T18:41:52.913760,1.00270974,.000182,1.0909,82.6274,313.4105,324.8708,0,U,63524,999,439,0,-.59E-6,0
STARLINK-11669 [DTC],2025-075A,2026-06-27T11:58:34.752576,15.70940140,.000401,43.0034,211.4730,257.5828,102.4591,0,U,63548,999,7052,.12581E-2,.164956E-2,0
STARLINK-11665 [DTC],2025-075B,2026-06-27T11:05:15.474624,15.70928184,.0002238,42.9986,212.0709,254.0723,105.9898,0,U,63549,999,7051,.1217E-2,.159336E-2,0
STARLINK-11667 [DTC],2025-075C,2026-06-27T11:35:50.974368,15.70978940,.0000942,42.9995,212.2407,276.5159,83.5601,0,U,63550,999,7051,.11234E-2,.147135E-2,0
STARLINK-11695 [DTC],2025-075D,2026-06-27T11:59:53.589984,15.70935021,.0003722,43.0031,211.4790,263.4641,96.5803,0,U,63551,999,7052,.1214E-2,.15901E-2,0
STARLINK-11685 [DTC],2025-075E,2026-06-27T12:13:50.323008,15.70929932,.0009243,43.0144,211.5540,260.1550,99.8274,0,U,63552,999,7052,.1126E-2,.147485E-2,0
STARLINK-11697 [DTC],2025-075F,2026-06-27T09:18:24.443424,15.70920198,.000227,42.9983,212.3669,255.2702,104.7914,0,U,63553,999,7050,.12645E-2,.165635E-2,0
STARLINK-11680 [DTC],2025-075G,2026-06-27T11:28:11.690976,15.70841237,.0001662,43.0010,212.1966,265.1071,94.9607,0,U,63554,999,7051,.10459E-3,.12993E-3,0
STARLINK-11626 [DTC],2025-075J,2026-06-27T08:48:00.713088,15.71064313,.0001969,43.0004,213.0896,224.5123,135.5587,0,U,63556,999,7049,.22934E-2,.307874E-2,0
STARLINK-11668 [DTC],2025-075K,2026-06-27T11:43:29.248608,15.71012441,.0002043,42.9999,212.2822,282.4780,77.5859,0,U,63557,999,7051,.1496E-2,.197565E-2,0
STARLINK-11657 [DTC],2025-075L,2026-06-27T11:20:32.377344,15.70958794,.000388,43.0002,212.1526,256.9348,103.1087,0,U,63558,999,7051,.11549E-2,.15126E-2,0
STARLINK-11606 [DTC],2025-075M,2026-06-27T12:06:13.476096,15.70928713,.0004018,42.9994,211.5122,255.9927,104.0494,0,U,63559,999,7052,.11247E-2,.14704E-2,0
STARLINK-11592 [DTC],2025-075N,2026-06-27T09:26:03.103872,15.70896471,.0001121,43.0048,212.4072,198.9215,161.1611,0,U,63560,999,7050,.24181E-2,.322959E-2,0
STARLINK-32953,2025-075P,2026-06-27T06:23:12.365376,15.27584066,.0001517,43.0033,11.9809,269.7279,90.3399,0,U,63561,999,6868,.90141E-3,.24629E-3,0
STARLINK-32951,2025-075Q,2026-06-27T12:34:16.148064,15.27583420,.0001215,43.0030,10.4490,259.1606,100.9109,0,U,63562,999,6873,.60165E-3,.16332E-3,0
